[{"OBJECT_NAME":"NEE-02 KRYSAOR","OBJECT_ID":"2013-066AB","EPOCH":"2026-03-09T09:04:24.249216","MEAN_MOTION":14.86160783,"ECCENTRICITY":0.006776,"INCLINATION":97.8816,"RA_OF_ASC_NODE":8.3817,"ARG_OF_PERICENTER":38.0821,"MEAN_ANOMALY":322.5155,"EPHEMERIS_TYPE":0,"CLASSIFICATION_TYPE":"U","NORAD_CAT_ID":39441,"ELEMENT_SET_NO":999,"REV_AT_EPOCH":66137,"BSTAR":0.00046918892,"MEAN_MOTION_DOT":4.234e-5,"MEAN_MOTION_DDOT":0},{"OBJECT_NAME":"STARLINK-5920","OBJECT_ID":"2023-037X","EPOCH":"2026-03-09T22:11:22.157664","MEAN_MOTION":14.98330041,"ECCENTRICITY":0.00027806,"INCLINATION":69.9981,"RA_OF_ASC_NODE":283.935,"ARG_OF_PERICENTER":270.2214,"MEAN_ANOMALY":89.8627,"EPHEMERIS_TYPE":0,"CLASSIFICATION_TYPE":"U","NORAD_CAT_ID":55935,"ELEMENT_SET_NO":999,"REV_AT_EPOCH":16401,"BSTAR":-3.4794604e-5,"MEAN_MOTION_DOT":-5.08e-6,"MEAN_MOTION_DDOT":0}]
